IRIDIUM 112             
1 41925U 17003J   25337.92122511  .00000173  00000+0  54866-4 0  9998
2 41925  86.3986 169.8953 0001963  83.1048 277.0371 14.34218198465280
IRIDIUM 111             
1 41926U 17003K   25337.55970332  .00000150  00000+0  46466-4 0  9992
2 41926  86.3988 170.1123 0001900  89.9821 270.1592 14.34219479465216
IRIDIUM 113             
1 42803U 17039A   25337.67920205  .00000135  00000+0  41209-4 0  9996
2 42803  86.3983  43.8827 0001943  92.9581 267.1837 14.34218615443166
IRIDIUM 123             
1 42804U 17039B   25337.79045065 -.00000122  00000+0 -50757-4 0  9998
2 42804  86.3966  75.3204 0001754 105.3674 254.7716 14.34217164441949
IRIDIUM 120             
1 42805U 17039C   25337.74263037 -.00000124  00000+0 -51504-4 0  9998
2 42805  86.3968  43.6637 0002281 103.0777 257.0674 14.34217997443164
IRIDIUM 115             
1 42806U 17039D   25337.67492993  .00000250  00000+0  68430-4 0  9990
2 42806  86.4511  43.7941 0002112 110.8510 249.2917 14.43274665446063
IRIDIUM 118             
1 42807U 17039E   25337.82216758  .00000416  00000+0  14157-3 0  9991
2 42807  86.3969  75.3060 0001870  94.4218 265.7191 14.34220390441940
IRIDIUM 117             
1 42808U 17039F   25337.77142313 -.00000088  00000+0 -38340-4 0  9999
2 42808  86.3966  75.2868 0001781 101.1409 258.9987 14.34217304441962
